{
  "type": "FeatureCollection",
  "features": [
    {
      "type": "Feature",
      "properties": {
        "norad_id": 40128,
        "name": "GSAT0201 (GALILEO 5)",
        "group": "gnss",
        "lat": -22.30467925566221,
        "lon": -99.8222281919756,
        "alt_km": 25739.308854149258,
        "timestamp": "2025-12-13T22:39:29.951239+00:00",
        "meta_object_name": "GSAT0201 (GALILEO 5)",
        "meta_object_id": "2014-050A",
        "meta_epoch": "2025-12-09T03:42:58.517280",
        "meta_mean_motion": 1.8551953,
        "meta_eccentricity": 0.164755,
        "meta_inclination": 49.0809,
        "meta_ra_of_asc_node": 281.2097,
        "meta_arg_of_pericenter": 172.1436,
        "meta_mean_anomaly": 190.8359,
        "meta_ephemeris_type": 0,
        "meta_classification_type": "U",
        "meta_norad_cat_id": 40128,
        "meta_element_set_no": 999,
        "meta_rev_at_epoch": 7479,
        "meta_bstar": 0,
        "meta_mean_motion_dot": -7.1e-07,
        "meta_mean_motion_ddot": 0,
        "tle_line1": "1 40128U 14050A   25343.15484395 -.00000071  00000+0  00000+0 0  9998",
        "tle_line2": "2 40128  49.0809 281.2097 1647550 172.1436 190.8359  1.85519530 74797"
      },
      "geometry": {
        "type": "Point",
        "coordinates": [
          -99.8222281919756,
          -22.30467925566221
        ]
      }
    },
    {
      "type": "Feature",
      "properties": {
        "norad_id": 40129,
        "name": "GSAT0202 (GALILEO 6)",
        "group": "gnss",
        "lat": 28.130263131858456,
        "lon": 72.50384182385295,
        "alt_km": 17480.31174553686,
        "timestamp": "2025-12-13T22:39:29.951250+00:00",
        "meta_object_name": "GSAT0202 (GALILEO 6)",
        "meta_object_id": "2014-050B",
        "meta_epoch": "2025-12-11T13:36:31.827456",
        "meta_mean_motion": 1.85520366,
        "meta_eccentricity": 0.16485158,
        "meta_inclination": 49.0938,
        "meta_ra_of_asc_node": 280.195,
        "meta_arg_of_pericenter": 172.988,
        "meta_mean_anomaly": 189.677,
        "meta_ephemeris_type": 0,
        "meta_classification_type": "U",
        "meta_norad_cat_id": 40129,
        "meta_element_set_no": 999,
        "meta_rev_at_epoch": 7700,
        "meta_bstar": 0,
        "meta_mean_motion_dot": -9.2e-07,
        "meta_mean_motion_ddot": 0,
        "tle_line1": "1 40129U 14050B   25345.56703504 -.00000092  00000+0  00000+0 0  9995",
        "tle_line2": "2 40129  49.0938 280.1950 1648515 172.9880 189.6770  1.85520366 77009"
      },
      "geometry": {
        "type": "Point",
        "coordinates": [
          72.50384182385295,
          28.130263131858456
        ]
      }
    },
    {
      "type": "Feature",
      "properties": {
        "norad_id": 40269,
        "name": "IRNSS-1C",
        "group": "gnss",
        "lat": 4.846198243292157,
        "lon": 145.67818093106848,
        "alt_km": 35736.39556239114,
        "timestamp": "2025-12-13T22:39:29.951263+00:00",
        "meta_object_name": "IRNSS-1C",
        "meta_object_id": "2014-061A",
        "meta_epoch": "2025-12-12T20:37:44.961024",
        "meta_mean_motion": 1.00275251,
        "meta_eccentricity": 0.00181348,
        "meta_inclination": 6.0413,
        "meta_ra_of_asc_node": 92.6203,
        "meta_arg_of_pericenter": 2.1122,
        "meta_mean_anomaly": 19.4179,
        "meta_ephemeris_type": 0,
        "meta_classification_type": "U",
        "meta_norad_cat_id": 40269,
        "meta_element_set_no": 999,
        "meta_rev_at_epoch": 4082,
        "meta_bstar": 0,
        "meta_mean_motion_dot": -1.5e-06,
        "meta_mean_motion_ddot": 0,
        "tle_line1": "1 40269U 14061A   25346.85954816 -.00000150  00000+0  00000+0 0  9994",
        "tle_line2": "2 40269   6.0413  92.6203 0018134   2.1122  19.4179  1.00275251 40822"
      },
      "geometry": {
        "type": "Point",
        "coordinates": [
          145.67818093106848,
          4.846198243292157
        ]
      }
    },
    {
      "type": "Feature",
      "properties": {
        "norad_id": 40294,
        "name": "GPS BIIF-8  (PRN 03)",
        "group": "gnss",
        "lat": -6.609757588763716,
        "lon": 33.77704295919176,
        "alt_km": 20146.02924972171,
        "timestamp": "2025-12-13T22:39:29.951284+00:00",
        "meta_object_name": "GPS BIIF-8  (PRN 03)",
        "meta_object_id": "2014-068A",
        "meta_epoch": "2025-12-12T11:01:19.657056",
        "meta_mean_motion": 2.00564803,
        "meta_eccentricity": 0.00607742,
        "meta_inclination": 56.8576,
        "meta_ra_of_asc_node": 38.1568,
        "meta_arg_of_pericenter": 69.1795,
        "meta_mean_anomaly": 291.5212,
        "meta_ephemeris_type": 0,
        "meta_classification_type": "U",
        "meta_norad_cat_id": 40294,
        "meta_element_set_no": 999,
        "meta_rev_at_epoch": 8146,
        "meta_bstar": 0,
        "meta_mean_motion_dot": -9.5e-07,
        "meta_mean_motion_ddot": 0,
        "tle_line1": "1 40294U 14068A   25346.45925529 -.00000095  00000+0  00000+0 0  9992",
        "tle_line2": "2 40294  56.8576  38.1568 0060774  69.1795 291.5212  2.00564803 81469"
      },
      "geometry": {
        "type": "Point",
        "coordinates": [
          33.77704295919176,
          -6.609757588763716
        ]
      }
    },
    {
      "type": "Feature",
      "properties": {
        "norad_id": 40315,
        "name": "COSMOS 2501 (702K)",
        "group": "gnss",
        "lat": 0.5303653106769842,
        "lon": -162.95036462149685,
        "alt_km": 19177.482604916302,
        "timestamp": "2025-12-13T22:39:29.951305+00:00",
        "meta_object_name": "COSMOS 2501 (702K)",
        "meta_object_id": "2014-075A",
        "meta_epoch": "2025-12-12T01:35:26.425248",
        "meta_mean_motion": 2.13101306,
        "meta_eccentricity": 0.0020213,
        "meta_inclination": 63.6138,
        "meta_ra_of_asc_node": 196.8484,
        "meta_arg_of_pericenter": 204.6963,
        "meta_mean_anomaly": 155.2753,
        "meta_ephemeris_type": 0,
        "meta_classification_type": "U",
        "meta_norad_cat_id": 40315,
        "meta_element_set_no": 999,
        "meta_rev_at_epoch": 8586,
        "meta_bstar": 0,
        "meta_mean_motion_dot": 6.5e-07,
        "meta_mean_motion_ddot": 0,
        "tle_line1": "1 40315U 14075A   25346.06627807  .00000065  00000+0  00000+0 0  9995",
        "tle_line2": "2 40315  63.6138 196.8484 0020213 204.6963 155.2753  2.13101306 85862"
      },
      "geometry": {
        "type": "Point",
        "coordinates": [
          -162.95036462149685,
          0.5303653106769842
        ]
      }
    },
    {
      "type": "Feature",
      "properties": {
        "norad_id": 40534,
        "name": "GPS BIIF-9  (PRN 26)",
        "group": "gnss",
        "lat": -51.62722624800723,
        "lon": 102.76039877161347,
        "alt_km": 20405.48586992063,
        "timestamp": "2025-12-13T22:39:29.951322+00:00",
        "meta_object_name": "GPS BIIF-9  (PRN 26)",
        "meta_object_id": "2015-013A",
        "meta_epoch": "2025-12-11T14:12:34.875648",
        "meta_mean_motion": 2.00562655,
        "meta_eccentricity": 0.01070076,
        "meta_inclination": 53.1979,
        "meta_ra_of_asc_node": 211.9377,
        "meta_arg_of_pericenter": 38.4526,
        "meta_mean_anomaly": 322.3807,
        "meta_ephemeris_type": 0,
        "meta_classification_type": "U",
        "meta_norad_cat_id": 40534,
        "meta_element_set_no": 999,
        "meta_rev_at_epoch": 7806,
        "meta_bstar": 0,
        "meta_mean_motion_dot": 2.2e-07,
        "meta_mean_motion_ddot": 0,
        "tle_line1": "1 40534U 15013A   25345.59207032  .00000022  00000+0  00000+0 0  9995",
        "tle_line2": "2 40534  53.1979 211.9377 0107007  38.4526 322.3807  2.00562655 78062"
      },
      "geometry": {
        "type": "Point",
        "coordinates": [
          102.76039877161347,
          -51.62722624800723
        ]
      }
    },
    {
      "type": "Feature",
      "properties": {
        "norad_id": 40544,
        "name": "GSAT0203 (GALILEO 7)",
        "group": "gnss",
        "lat": 44.203744779850474,
        "lon": 26.12463012305541,
        "alt_km": 23232.408053173815,
        "timestamp": "2025-12-13T22:39:29.951336+00:00",
        "meta_object_name": "GSAT0203 (GALILEO 7)",
        "meta_object_id": "2015-017A",
        "meta_epoch": "2025-12-11T12:08:22.810848",
        "meta_mean_motion": 1.70475934,
        "meta_eccentricity": 0.00065093,
        "meta_inclination": 56.8465,
        "meta_ra_of_asc_node": 346.7135,
        "meta_arg_of_pericenter": 271.8959,
        "meta_mean_anomaly": 88.0466,
        "meta_ephemeris_type": 0,
        "meta_classification_type": "U",
        "meta_norad_cat_id": 40544,
        "meta_element_set_no": 999,
        "meta_rev_at_epoch": 6600,
        "meta_bstar": 0,
        "meta_mean_motion_dot": -8.8e-07,
        "meta_mean_motion_ddot": 0,
        "tle_line1": "1 40544U 15017A   25345.50581957 -.00000088  00000+0  00000+0 0  9995",
        "tle_line2": "2 40544  56.8465 346.7135 0006509 271.8959  88.0466  1.70475934 66007"
      },
      "geometry": {
        "type": "Point",
        "coordinates": [
          26.12463012305541,
          44.203744779850474
        ]
      }
    }
  ]
}